OBJECT_NAME,OBJECT_ID,EPOCH,MEAN_MOTION,ECCENTRICITY,INCLINATION,RA_OF_ASC_NODE,ARG_OF_PERICENTER,MEAN_ANOMALY,EPHEMERIS_TYPE,CLASSIFICATION_TYPE,NORAD_CAT_ID,ELEMENT_SET_NO,REV_AT_EPOCH,BSTAR,MEAN_MOTION_DOT,MEAN_MOTION_DDOT
HAWK-5A,2022-057AB,2026-07-20T05:59:07.722816,15.52434413,.00029534,97.6637,2.2669,313.5625,46.5381,0,U,52757,999,23147,.18518189E-3,.11212E-3,0
HAWK-6B,2023-011A,2026-07-20T03:57:29.015424,15.23180588,.00045774,40.4981,159.6818,265.8375,94.1911,0,U,55324,999,19287,.1161883E-3,.2609E-4,0
HAWK-6C,2023-011C,2026-07-20T07:05:24.048672,15.23180433,.00050453,40.4968,155.7556,260.9756,99.0483,0,U,55326,999,19290,.10612287E-3,.2366E-4,0
HAWK-6A,2023-011D,2026-07-20T07:05:27.289536,15.23180974,.00047409,40.4979,157.3831,258.0591,101.9687,0,U,55327,999,19290,.11106684E-3,.2486E-4,0
HAWK-7A,2023-054P,2026-07-20T03:01:46.996896,15.27662032,.00010103,97.2654,87.6258,297.8313,62.2824,0,U,56191,999,18205,.110707E-3,.2921E-4,0
HAWK-7B,2023-054R,2026-07-20T03:01:41.316960,15.27664241,.0000811,97.2683,85.9006,7.7198,352.4054,0,U,56193,999,18205,.11661717E-3,.3081E-4,0
HAWK-7C,2023-054Y,2026-07-20T03:01:30.140256,15.27662875,.0000421,97.2657,86.6595,320.1180,40.0029,0,U,56200,999,18205,.10976891E-3,.2896E-4,0
